{"type": "FeatureCollection", "features": [ {"type": "Feature", "properties": {"norad_id": 28659, "name": "DIRECTV 8", "group": "intelsat", "lat": 0.02362692584790126, "lon": 99.93184403474764, "alt_km": 35798.92347648327, "timestamp": "2025-12-06T09:34:16.585310+00:00", "meta": {"OBJECT_NAME": "DIRECTV 8", "OBJECT_ID": "2005-019A", "EPOCH": "2025-12-05T21:41:25.827360", "MEAN_MOTION": 1.00270953, "ECCENTRICITY": 0.00032665, "INCLINATION": 0.0018, "RA_OF_ASC_NODE": 351.2733, "ARG_OF_PERICENTER": 264.522, "MEAN_ANOMALY": 25.4663, "EPHEMERIS_TYPE": 0, "CLASSIFICATION_TYPE": "U", "NORAD_CAT_ID": 28659, "ELEMENT_SET_NO": 999, "REV_AT_EPOCH": 7513, "BSTAR": 0, "MEAN_MOTION_DOT": 1.1e-07, "MEAN_MOTION_DDOT": 0}, "tle": {"line1": "1 28659U 05019A   25339.90377115  .00000011  00000+0  00000+0 0  9990", "line2": "2 28659   0.0018 351.2733 0003266 264.5220  25.4663  1.00270953 75132"}}, "geometry": {"type": "Point", "coordinates": [99.93184403474764, 0.02362692584790126]}}, {"type": "Feature", "properties": {"norad_id": 28702, "name": "GALAXY 28 (G-28)", "group": "intelsat", "lat": 2.1255069962470783, "lon": 130.2536540589635, "alt_km": 35792.187779501124, "timestamp": "2025-12-06T09:34:16.585322+00:00", "meta": {"OBJECT_NAME": "GALAXY 28 (G-28)", "OBJECT_ID": "2005-022A", "EPOCH": "2025-12-05T21:50:02.501952", "MEAN_MOTION": 1.00271855, "ECCENTRICITY": 0.00026283, "INCLINATION": 2.8012, "RA_OF_ASC_NODE": 81.3616, "ARG_OF_PERICENTER": 173.8076, "MEAN_ANOMALY": 58.6106, "EPHEMERIS_TYPE": 0, "CLASSIFICATION_TYPE": "U", "NORAD_CAT_ID": 28702, "ELEMENT_SET_NO": 999, "REV_AT_EPOCH": 5003, "BSTAR": 0, "MEAN_MOTION_DOT": -1.8e-06, "MEAN_MOTION_DDOT": 0}, "tle": {"line1": "1 28702U 05022A   25339.90975118 -.00000180  00000+0  00000+0 0  9998", "line2": "2 28702   2.8012  81.3616 0002628 173.8076  58.6106  1.00271855 50032"}}, "geometry": {"type": "Point", "coordinates": [130.2536540589635, 2.1255069962470783]}}, {"type": "Feature", "properties": {"norad_id": 29236, "name": "GALAXY 16 (G-16)", "group": "intelsat", "lat": 0.0022954476408569616, "lon": 119.96600997069494, "alt_km": 35795.98972230239, "timestamp": "2025-12-06T09:34:16.585334+00:00", "meta": {"OBJECT_NAME": "GALAXY 16 (G-16)", "OBJECT_ID": "2006-023A", "EPOCH": "2025-12-05T21:47:10.277376", "MEAN_MOTION": 1.00271104, "ECCENTRICITY": 0.00029924, "INCLINATION": 0.0228, "RA_OF_ASC_NODE": 208.9137, "ARG_OF_PERICENTER": 51.0231, "MEAN_ANOMALY": 42.8047, "EPHEMERIS_TYPE": 0, "CLASSIFICATION_TYPE": "U", "NORAD_CAT_ID": 29236, "ELEMENT_SET_NO": 999, "REV_AT_EPOCH": 7103, "BSTAR": 0, "MEAN_MOTION_DOT": -1.17e-06, "MEAN_MOTION_DDOT": 0}, "tle": {"line1": "1 29236U 06023A   25339.90775784 -.00000117  00000+0  00000+0 0  9990", "line2": "2 29236   0.0228 208.9137 0002992  51.0231  42.8047  1.00271104 71032"}}, "geometry": {"type": "Point", "coordinates": [119.96600997069494, 0.0022954476408569616]}}, {"type": "Feature", "properties": {"norad_id": 29494, "name": "DIRECTV 9S", "group": "intelsat", "lat": 1.1056816219332064, "lon": 117.74902184947209, "alt_km": 35796.578655665784, "timestamp": "2025-12-06T09:34:16.585345+00:00", "meta": {"OBJECT_NAME": "DIRECTV 9S", "OBJECT_ID": "2006-043A", "EPOCH": "2025-12-05T21:46:32.836800", "MEAN_MOTION": 1.00270515, "ECCENTRICITY": 0.00032532, "INCLINATION": 1.9216, "RA_OF_ASC_NODE": 83.2819, "ARG_OF_PERICENTER": 172.6571, "MEAN_ANOMALY": 44.4453, "EPHEMERIS_TYPE": 0, "CLASSIFICATION_TYPE": "U", "NORAD_CAT_ID": 29494, "ELEMENT_SET_NO": 999, "REV_AT_EPOCH": 4944, "BSTAR": 0, "MEAN_MOTION_DOT": -1.05e-06, "MEAN_MOTION_DDOT": 0}, "tle": {"line1": "1 29494U 06043A   25339.90732450 -.00000105  00000+0  00000+0 0  9998", "line2": "2 29494   1.9216  83.2819 0003253 172.6571  44.4453  1.00270515 49448"}}, "geometry": {"type": "Point", "coordinates": [117.74902184947209, 1.1056816219332064]}}, {"type": "Feature", "properties": {"norad_id": 31307, "name": "GALAXY 17 (G-17)", "group": "intelsat", "lat": 1.9562728434635863, "lon": 133.90209089915976, "alt_km": 35794.34498139568, "timestamp": "2025-12-06T09:34:16.585357+00:00", "meta": {"OBJECT_NAME": "GALAXY 17 (G-17)", "OBJECT_ID": "2007-016B", "EPOCH": "2025-12-05T21:51:09.893952", "MEAN_MOTION": 1.00270121, "ECCENTRICITY": 0.00060923, "INCLINATION": 2.4819, "RA_OF_ASC_NODE": 82.3624, "ARG_OF_PERICENTER": 159.5421, "MEAN_ANOMALY": 75.8428, "EPHEMERIS_TYPE": 0, "CLASSIFICATION_TYPE": "U", "NORAD_CAT_ID": 31307, "ELEMENT_SET_NO": 999, "REV_AT_EPOCH": 6786, "BSTAR": 0, "MEAN_MOTION_DOT": -1.98e-06, "MEAN_MOTION_DDOT": 0}, "tle": {"line1": "1 31307U 07016B   25339.91053118 -.00000198  00000+0  00000+0 0  9995", "line2": "2 31307   2.4819  82.3624 0006092 159.5421  75.8428  1.00270121 67864"}}, "geometry": {"type": "Point", "coordinates": [133.90209089915976, 1.9562728434635863]}}, {"type": "Feature", "properties": {"norad_id": 31862, "name": "DIRECTV 10", "group": "intelsat", "lat": -0.00491597044393322, "lon": 116.20247833183534, "alt_km": 35785.89639003577, "timestamp": "2025-12-06T09:34:16.585368+00:00", "meta": {"OBJECT_NAME": "DIRECTV 10", "OBJECT_ID": "2007-032A", "EPOCH": "2025-12-05T21:46:02.883648", "MEAN_MOTION": 1.00271472, "ECCENTRICITY": 3.638e-05, "INCLINATION": 0.0045, "RA_OF_ASC_NODE": 107.8755, "ARG_OF_PERICENTER": 87.4391, "MEAN_ANOMALY": 103.363, "EPHEMERIS_TYPE": 0, "CLASSIFICATION_TYPE": "U", "NORAD_CAT_ID": 31862, "ELEMENT_SET_NO": 999, "REV_AT_EPOCH": 4365, "BSTAR": 0, "MEAN_MOTION_DOT": -9.4e-07, "MEAN_MOTION_DDOT": 0}, "tle": {"line1": "1 31862U 07032A   25339.90697782 -.00000094  00000+0  00000+0 0  9994", "line2": "2 31862   0.0045 107.8755 0000363  87.4391 103.3630  1.00271472 43656"}}, "geometry": {"type": "Point", "coordinates": [116.20247833183534, -0.00491597044393322]}}, {"type": "Feature", "properties": {"norad_id": 32253, "name": "INTELSAT 11 (IS-11)", "group": "intelsat", "lat": 1.6188122518858479, "lon": 112.49337018349136, "alt_km": 36158.90842220182, "timestamp": "2025-12-06T09:34:16.585380+00:00", "meta": {"OBJECT_NAME": "INTELSAT 11 (IS-11)", "OBJECT_ID": "2007-044B", "EPOCH": "2025-12-05T21:45:40.419648", "MEAN_MOTION": 0.99047165, "ECCENTRICITY": 0.00092771, "INCLINATION": 3.0614, "RA_OF_ASC_NODE": 81.0516, "ARG_OF_PERICENTER": 162.75, "MEAN_ANOMALY": 53.3508, "EPHEMERIS_TYPE": 0, "CLASSIFICATION_TYPE": "U", "NORAD_CAT_ID": 32253, "ELEMENT_SET_NO": 999, "REV_AT_EPOCH": 6653, "BSTAR": 0, "MEAN_MOTION_DOT": 4.2e-07, "MEAN_MOTION_DDOT": 0}, "tle": {"line1": "1 32253U 07044B   25339.90671782  .00000042  00000+0  00000+0 0  9996", "line2": "2 32253   3.0614  81.0516 0009277 162.7500  53.3508  0.99047165 66533"}}, "geometry": {"type": "Point", "coordinates": [112.49337018349136, 1.6188122518858479]}}, {"type": "Feature", "properties": {"norad_id": 32388, "name": "HORIZONS-2", "group": "intelsat", "lat": 1.8660591581265118, "lon": 145.15436113239406, "alt_km": 35797.16572823538, "timestamp": "2025-12-06T09:34:16.585391+00:00", "meta": {"OBJECT_NAME": "HORIZONS-2", "OBJECT_ID": "2007-063B", "EPOCH": "2025-12-05T21:54:24.583392", "MEAN_MOTION": 1.00271306, "ECCENTRICITY": 0.0005074, "INCLINATION": 2.1028, "RA_OF_ASC_NODE": 83.034, "ARG_OF_PERICENTER": 183.4842, "MEAN_ANOMALY": 63.2661, "EPHEMERIS_TYPE": 0, "CLASSIFICATION_TYPE": "U", "NORAD_CAT_ID": 32388, "ELEMENT_SET_NO": 999, "REV_AT_EPOCH": 6587, "BSTAR": 0, "MEAN_MOTION_DOT": -2.45e-06, "MEAN_MOTION_DDOT": 0}, "tle": {"line1": "1 32388U 07063B   25339.91278453 -.00000245  00000+0  00000+0 0  9991", "line2": "2 32388   2.1028  83.0340 0005074 183.4842  63.2661  1.00271306 65873"}}, "geometry": {"type": "Point", "coordinates": [145.15436113239406, 1.8660591581265118]}}, {"type": "Feature", "properties": {"norad_id": 32729, "name": "DIRECTV 11", "group": "intelsat", "lat": 0.002482650448328831, "lon": 119.79005932910408, "alt_km": 35786.1219945831, "timestamp": "2025-12-06T09:34:16.585408+00:00", "meta": {"OBJECT_NAME": "DIRECTV 11", "OBJECT_ID": "2008-013A", "EPOCH": "2025-12-05T21:47:02.789088", "MEAN_MOTION": 1.0026924, "ECCENTRICITY": 4.793e-05, "INCLINATION": 0.0051, "RA_OF_ASC_NODE": 253.8201, "ARG_OF_PERICENTER": 295.7852, "MEAN_ANOMALY": 112.9152, "EPHEMERIS_TYPE": 0, "CLASSIFICATION_TYPE": "U", "NORAD_CAT_ID": 32729, "ELEMENT_SET_NO": 999, "REV_AT_EPOCH": 4365, "BSTAR": 0, "MEAN_MOTION_DOT": -1.16e-06, "MEAN_MOTION_DDOT": 0}, "tle": {"line1": "1 32729U 08013A   25339.90767117 -.00000116  00000+0  00000+0 0  9992", "line2": "2 32729   0.0051 253.8201 0000479 295.7852 112.9152  1.00269240 43653"}}, "geometry": {"type": "Point", "coordinates": [119.79005932910408, 0.002482650448328831]}}, {"type": "Feature", "properties": {"norad_id": 32951, "name": "GALAXY 18 (G-18)", "group": "intelsat", "lat": 0.03205913274790075, "lon": 95.97404656189627, "alt_km": 35799.824464743055, "timestamp": "2025-12-06T09:34:16.585419+00:00", "meta": {"OBJECT_NAME": "GALAXY 18 (G-18)", "OBJECT_ID": "2008-024A", "EPOCH": "2025-12-05T21:40:18.433632", "MEAN_MOTION": 1.00269762, "ECCENTRICITY": 0.00033245, "INCLINATION": 0.0151, "RA_OF_ASC_NODE": 24.606, "ARG_OF_PERICENTER": 230.9921, "MEAN_ANOMALY": 21.4241, "EPHEMERIS_TYPE": 0, "CLASSIFICATION_TYPE": "U", "NORAD_CAT_ID": 32951, "ELEMENT_SET_NO": 999, "REV_AT_EPOCH": 4391, "BSTAR": 0, "MEAN_MOTION_DOT": 3.5e-07, "MEAN_MOTION_DDOT": 0}, "tle": {"line1": "1 32951U 08024A   25339.90299113  .00000035  00000+0  00000+0 0  9996", "line2": "2 32951   0.0151  24.6060 0003324 230.9921  21.4241  1.00269762 43919"}}, "geometry": {"type": "Point", "coordinates": [95.97404656189627, 0.03205913274790075]}}]}